MOLNIYA 2-9             
1 07276U 74026A   23094.71431310  .00000158  00000+0  00000+0 0  9991
2 07276  64.2778 187.4590 6387246 277.3438  19.0904  2.45097544256356
MOLNIYA 2-10            
1 07376U 74056A   23089.28884014 -.00000706  00000+0  00000+0 0  9994
2 07376  64.5412  64.7485 6790792 284.2374  13.8704  2.01077049356109
MOLNIYA 1-S             
1 07392U 74060A   23095.53684229  .00000141  00000+0  00000+0 0  9990
2 07392   4.3772 278.4015 0010216 214.4687 296.4321  1.00291166122452
MOLNIYA 1-29            
1 07780U 75036A   23095.29787645  .00000271  00000+0 -51536-1 0  9991
2 07780  63.4143 183.8870 6774833 287.2480  13.1370  2.00580631351479
MOLNIYA 2-14            
1 08195U 75081A   23095.13945465 -.00000914  00000+0  00000+0 0  9993
2 08195  63.4025 157.4102 6714516 291.5561  12.3583  2.02093736348788
MOLNIYA 1-32            
1 08601U 76006A   23095.48943346  .00000075  00000+0  00000+0 0  9994
2 08601  63.5420 258.7162 7104521 283.8755  11.8100  1.99946442 58503
MOLNIYA 1-36            
1 09880U 77021A   23095.35402723 -.00001022  00000+0  00000+0 0  9991
2 09880  63.4416 231.7205 7015386 289.4005  11.0158  2.00397345235222
MOLNIYA 3-8             
1 10455U 77105A   23094.66000641  .00000043  00000+0 -76215-2 0  9996
2 10455  63.4600 314.3089 7300584 282.7167  10.9972  2.00413328332980
MOLNIYA 1-40            
1 10925U 78055A   23093.77528406 -.00000467  00000+0  00000+0 0  9994
2 10925  63.6289   6.6371 7268148 280.6882  11.8583  2.00540784328500
MOLNIYA 3-10            
1 11057U 78095A   23095.14845994  .00000215  00000+0  12830-2 0  9999
2 11057  63.2627 292.5497 5766172 312.5233  11.3546  4.09884325395687
MOLNIYA 3-13            
1 11896U 80063A   23094.05049733  .00000040  00000+0  00000+0 0  9993
2 11896  62.8217  99.1149 7192294 276.9071  13.2775  2.00577060312921
MOLNIYA 1-49            
1 12156U 81009A   23094.86906402  .00001209  00000+0  66961-3 0  9998
2 12156  61.6926 119.3074 7381337 267.2326  14.8241  2.05711845227488
MOLNIYA 1-52            
1 13012U 81123A   23093.47849715  .00000921  00000+0  16688-1 0  9995
2 13012  61.6443 237.3096 7176304 258.8574  19.8764  2.00837226302392
MOLNIYA 1-53            
1 13070U 82015A   23095.32143926  .00001014  00000+0  34668-2 0  9990
2 13070  62.5349 179.1701 6948358 283.1906  13.1733  2.00366307301111
MOLNIYA 3-20            
1 13875U 83015A   23095.05335132 -.00001451  00000+0 -10108-2 0  9996
2 13875  62.4361 306.5403 7362709 261.0183  17.1084  2.00751973229563
MOLNIYA 1-56            
1 13890U 83019A   23094.76599665  .00001532  00000+0  71384-3 0  9999
2 13890  62.8016 330.9670 7435001 266.7404  14.4779  1.99947100292424
MOLNIYA 1-63            
1 15429U 84124A   23095.04632661 -.00001024  00000+0  00000+0 0  9993
2 15429  63.6604 139.0005 6768567 257.6673  18.3408  2.00538177280600
MOLNIYA 3-24            
1 15738U 85040A   23094.98936981 -.00000192  00000+0 -20829-2 0  9998
2 15738  63.5047  27.1768 6886859 247.3203  29.7763  2.55631369311327
MOLNIYA 3-27            
1 16393U 85117A   23094.66154171 -.00000027  00000+0  00000+0 0  9991
2 16393  64.2038  42.2449 7086324 246.6662  27.7857  2.12398280280364
MOLNIYA 1-69            
1 17078U 86089A   23095.29940098  .00001131  00000+0  00000+0 0  9998
2 17078  64.0521 158.2919 6749700 255.6123  26.0178  2.00950410266688
MOLNIYA 3-31            
1 17328U 87008A   23095.01178367 -.00000285  00000+0  00000+0 0  9990
2 17328  63.6070  92.2505 7192987 253.0475  22.6810  2.00615577261716
MOLNIYA 1-71            
1 18946U 88017A   23095.02396248  .00000430  00000+0  00000+0 0  9990
2 18946  63.3212  83.8528 7300258 256.4164  19.8727  2.00614251256901
MOLNIYA 1-75            
1 19807U 89014A   23095.29905454 -.00000783  00000+0  00000+0 0  9991
2 19807  63.9039 253.3645 6745009 265.4036  20.9461  2.00451112249858
MOLNIYA 1-80            
1 21118U 91012A   23094.99553138 -.00000533  00000+0  00000+0 0  9997
2 21118  65.1722 301.7735 6700414 273.8180  17.8744  2.05238856236961
MOLNIYA 3-40            
1 21196U 91022A   23094.95062050 -.00000739  00000+0  00000+0 0  9996
2 21196  65.0345 295.5442 6726636 270.7425  18.8345  2.03002305235608
MOLNIYA 1-81            
1 21426U 91043A   23094.63120275 -.00000087  00000+0  00000+0 0  9990
2 21426  63.9382 307.4548 7038916 265.4457  18.2805  2.00597070233008
MOLNIYA 3-41            
1 21706U 91065A   23095.05398628 -.00000891  00000+0  00000+0 0  9994
2 21706  64.0646 133.1033 6985150 253.2953  24.7861  2.04356112232820
MOLNIYA 3-42            
1 22178U 92067A   23092.76895147  .00000152  00000+0  00000+0 0  9993
2 22178  64.6734 185.7075 6429458 262.2301  25.6408  2.20435201 86434
MOLNIYA 1-86            
1 22671U 93035A   23095.48800837  .00000825  00000+0  12288-2 0  9992
2 22671  63.1192  66.9676 4850794  11.7939 356.3701  5.62865532368733
MOLNIYA 1-87            
1 22949U 93079A   23094.87676844 -.00001200  00000+0  00000+0 0  9994
2 22949  64.3492  58.3906 6937471 282.3785  13.4973  2.02877896 80845
MOLNIYA 1-88            
1 23420U 94081A   23095.27631688  .00000104  00000+0  00000+0 0  9996
2 23420  64.2898 131.4814 5808971 277.5800  23.6446  3.34498952123467
MOLNIYA 3-47            
1 23642U 95042A   23093.93421113  .00000268  00000+0  00000+0 0  9992
2 23642  64.4971  39.9342 6969113 282.6246  13.2542  2.01980955202881
MOLNIYA 1-90            
1 24960U 97054A   23095.22705261  .00000044  00000+0 -38052-2 0  9998
2 24960  63.7817  96.8540 6098089 296.4481  14.4259  3.18690775217305
MOLNIYA 1-91            
1 25485U 98054A   23095.29883598  .00000138  00000+0  22925-2 0  9994
2 25485  63.2285 104.7944 6781322 291.7972  67.2061  2.36445841185280
MOLNIYA 3-50            
1 25847U 99036A   23093.58184406 -.00000370  00000+0 -88090-2 0  9994
2 25847  63.3150 291.0263 7277637 282.7646  11.0626  2.00597120173938
